CCSDS_OEM_VERS = 2.0  
CREATION_DATE  = 2026-03-24T10:47:07
ORIGINATOR     = ESOC/OPS-GFA                            
 
 



META_START
OBJECT_NAME          = LISA                                    
OBJECT_ID            = -1000                                   
CENTER_NAME          = SUN                     
REF_FRAME            = EME2000 
TIME_SYSTEM          = TCB
START_TIME           = 2036-12-23T00:00:30.346418            
STOP_TIME            = 2047-09-08T19:58:12.431732            
INTERPOLATION        = HERMITE                                 
INTERPOLATION_DEGREE = 7                                       
META_STOP

2041-04-10T19:04:15.628997    -1.49284589182831168e+08    2.02487106260393560e+06    1.25152152734858915e+05   -5.02461971967579579e-01   -2.74684819252348333e+01   -1.16828750042125673e+01    5.95336933065719927e-06   -8.09330231092347502e-08   -5.06321100081307619e-09
2041-04-11T15:20:07.365160    -1.49305402667675883e+08    2.08532133616618812e+04   -7.27117161023525521e+05   -6.81537382987134066e-02   -2.74714708521961839e+01   -1.16820047201389876e+01    5.95314645481959413e-06   -1.01281945721350200e-09    2.89199540421653452e-08
2041-04-12T11:35:59.101322    -1.49294534347106516e+08   -1.98317004378001019e+06   -1.57923257444374822e+06    3.66091798082292641e-01   -2.74686303848107656e+01   -1.16786559268493129e+01    5.95165059802583521e-06    7.88791871253744067e-08    6.28848492009537014e-08
2041-04-13T07:47:09.690845    -1.49252216979426861e+08   -3.97905325695179030e+06   -2.42773155265003256e+06    7.98509319011708518e-01   -2.74600077942632588e+01   -1.16728574291404463e+01    5.94889658911487559e-06    1.58418052910628141e-07    9.66933717478007877e-08
2041-04-14T03:58:20.280366    -1.49178483974016070e+08   -5.97409989269839600e+06   -3.27571990759773180e+06    1.23068089913869816e+00   -2.74456072270935678e+01   -1.16646031905150931e+01    5.94488224889162882e-06    2.37894644555262714e-07    1.30469194898544612e-07
2041-04-15T00:09:30.869888    -1.49073356558423907e+08   -7.96789025912170392e+06   -4.12301927951565757e+06    1.66251501673020896e+00   -2.74254338276612692e+01   -1.16538958501072969e+01    5.93960946082488798e-06    3.17291934625659383e-07    1.64205086782197553e-07
2041-04-15T20:20:41.459410    -1.48936862546740323e+08   -9.96000505360919796e+06   -4.96945150664274022e+06    2.09392029422409776e+00   -2.73994939766206933e+01   -1.16407385720796555e+01    5.93308031424384676e-06    3.96592927460603291e-07    1.97893830406158655e-07
2041-04-16T16:31:52.048932    -1.48769036380274206e+08   -1.19500254773233961e+07   -5.81483867413778696e+06    2.52480551419200427e+00   -2.73677952882902034e+01   -1.16251350443986983e+01    5.92529713089276448e-06    4.75780667853200168e-07    2.31528227520218794e-07
2041-04-17T12:43:02.638454    -1.48569919142278075e+08   -1.39375333377337568e+07   -6.65900315776287299e+06    2.95507963702442877e+00   -2.73303466074301546e+01   -1.16070894773480120e+01    5.91626248588642398e-06    5.54838248634179081e-07    2.65101101967248186e-07
2041-04-18T08:54:13.227976    -1.48339558552103579e+08   -1.59221111417652853e+07   -7.50176766346424539e+06    3.38465181993536834e+00   -2.72871580055096565e+01   -1.15866066018164968e+01    5.90597922307253269e-06    6.33748817158466964e-07    2.98605302521408498e-07
2041-04-19T05:05:23.817498    -1.48078008944170713e+08   -1.79033421821191534e+07   -8.34295526396652870e+06    3.81343143687979280e+00   -2.72382407765418044e+01   -1.15636916673989987e+01    5.89445046478967605e-06    7.12495580694006825e-07    3.32033705213396963e-07
2041-04-20T01:16:34.407020    -1.47785331237133801e+08   -1.98808106193205491e+07   -9.18238943349608406e+06    4.24132809897723284e+00   -2.71836074325671575e+01   -1.15383504403465729e+01    5.88167961604166355e-06    7.91061810714688594e-07    3.65379215143609478e-07
2041-04-20T21:27:44.996542    -1.47461592898626924e+08   -2.18541015620491765e+07   -1.00198940817492250e+07    4.66825167503478422e+00   -2.71232716988651106e+01   -1.15105892014036453e+01    5.86767036305322407e-06    8.69430846094441919e-07    3.98634767781810773e-07
2041-04-21T17:38:55.586063    -1.47106867910971969e+08   -2.38228011483076029e+07   -1.08552935882212296e+07    5.09411231176272938e+00   -2.70572485089729931e+01   -1.14804147435692965e+01    5.85242666625732441e-06    9.47586095207129731e-07    4.31793329755507209e-07
2041-04-22T13:50:06.175585    -1.46721236743231952e+08   -2.57864966299827993e+07   -1.16884128380118273e+07    5.51882045327616932e+00   -2.69855539995924900e+01   -1.14478343698199545e+01    5.83595274766616464e-06    1.02551103692624109e-06    4.64847899124290477e-07
2041-04-23T10:01:16.765107    -1.46304786334992975e+08   -2.77447764633562304e+07   -1.25190772602230851e+07    5.94228685947584534e+00   -2.69082055054632185e+01   -1.14128558908307234e+01    5.81825307264622671e-06    1.10318922052887630e-06    4.97791505142051044e-07
2041-04-24T06:12:27.354630    -1.45857610097257078e+08   -2.96972304081175588e+07   -1.33471128700652812e+07    6.36442262290142757e+00   -2.68252215542830967e+01   -1.13754876227326065e+01    5.79933232609678479e-06    1.18060426450457497e-06    5.30617207507451300e-07
2041-04-25T02:23:37.944152    -1.45379807935829550e+08   -3.16434496374376416e+07   -1.41723463157869596e+07    6.78513918365064850e+00   -2.67366218617553102e+01   -1.13357383849428999e+01    5.77919538306748011e-06    1.25773985426424335e-06    5.63318095100661041e-07
2041-04-25T22:34:48.533673    -1.44871486302583337e+08   -3.35830268616557717e+07   -1.49946049315445367e+07    7.20434834195743345e+00   -2.66424273268414957e+01   -1.12936174981059594e+01    5.75784727365893575e-06    1.33457973875149661e-06    5.95887284206672246e-07
2041-04-26T18:43:31.756666    -1.44333881152935296e+08   -3.55116447971563861e+07   -1.58120589766816795e+07    7.62111710006241339e+00   -2.65428679612235463e+01   -1.12492273682563084e+01    5.73534090940617858e-06    1.41095300485966381e-06    6.28252359590536083e-07
2041-04-27T14:52:14.979658    -1.43766110841063529e+08   -3.74328418087271750e+07   -1.66262087207958847e+07    8.03621025695930946e+00   -2.64377815046559128e+01   -1.12024952261161097e+01    5.71163958728324804e-06    1.48699975185193553e-06    6.60472714993377883e-07
2041-04-28T11:00:58.202651    -1.43168300047049224e+08   -3.93462179489872232e+07   -1.74368847097648755e+07    8.44954136883660034e+00   -2.63271922110708303e+01   -1.11534318101093302e+01    5.68674935853852557e-06    1.56270416849745161e-06    6.92541657243244207e-07
2041-04-29T07:09:41.425643    -1.42540579655057430e+08   -4.12513750310440734e+07   -1.82439182685522921e+07    8.86102443735679657e+00   -2.62111254786366743e+01   -1.11020483430223074e+01    5.66067646140102258e-06    1.63805051373472335e-06    7.24452523281294506e-07
2041-04-30T03:18:24.648636    -1.41883086763562500e+08   -4.31479167452600971e+07   -1.90471415509307422e+07    9.27057392410678460e+00   -2.60896078441051706e+01   -1.10483565295701780e+01    5.63342734463965410e-06    1.71302313181435113e-06    7.56198686866439908e-07
2041-04-30T23:27:07.871628    -1.41195964673864752e+08   -4.50354487593996823e+07   -1.98463875820242390e+07    9.67810476656332597e+00   -2.59626669761463340e+01   -1.09923685535151350e+01    5.60500868589939459e-06    1.78760646508725466e-06    7.87773564236492688e-07
2041-05-01T19:35:51.094622    -1.40479362861381322e+08   -4.69135788056901917e+07   -2.06414902951958925e+07    1.00835323951991391e+01   -2.58303316678412358e+01   -1.09340970744119375e+01    5.57542740482122036e-06    1.86178506444189512e-06    8.19170618727317401e-07
2041-05-02T15:44:34.317614    -1.39733436934197903e+08   -4.87819167583109885e+07   -2.14322845647989698e+07    1.04867727513509870e+01   -2.56926318285032096e+01   -1.08735552240562381e+01    5.54469067093337850e-06    1.93554359738687299e-06    8.50383364348366489e-07
2041-05-03T11:53:17.540607    -1.38958348583366841e+08   -5.06400747048247084e+07   -2.22186062363093086e+07    1.08877423054711269e+01   -2.55495984749980387e+01   -1.08107566027113737e+01    5.51280590633600443e-06    2.00886685378526167e-06    8.81405368317466289e-07
2041-05-04T08:02:00.763599    -1.38154265529438168e+08   -5.24876670150649399e+07   -2.30002921553572342e+07    1.12863580753835695e+01   -2.54012637227337628e+01   -1.07457152751891911e+01    5.47978078314342459e-06    2.08173974923023795e-06    9.12230252550168305e-07
2041-05-05T04:10:43.986592    -1.37321361469709426e+08   -5.43243104109947979e+07   -2.37771801971768104e+07    1.16825376441664730e+01   -2.52476607764906689e+01   -1.06784457668605484e+01    5.44562321573343910e-06    2.15414732607731441e-06    9.42851694110470890e-07
2041-05-06T00:19:27.209584    -1.36459816030680448e+08   -5.61496240410503596e+07   -2.45491092979907393e+07    1.20761991772821418e+01   -2.50888239212620583e+01   -1.06089630596710727e+01    5.41034134776361869e-06    2.22607475211836529e-06    9.73263424616415046e-07
2041-05-06T20:28:10.432577    -1.35569814730199248e+08   -5.79632295624833629e+07   -2.53159194898487180e+07    1.24672614385759744e+01   -2.49247885132764218e+01   -1.05372825882378169e+01    5.37394353393330724e-06    2.29750731689732245e-06    1.00345922860032816e-06
2041-05-07T16:36:53.655569    -1.34651548953785181e+08   -5.97647512352171838e+07   -2.60774519404374100e+07    1.28556438047657480e+01   -2.47555909713715430e+01   -1.04634202361023831e+01    5.33643831661043116e-06    2.36843042569437876e-06    1.03343294083584235e-06
2041-05-08T12:45:36.878562    -1.33705215949615091e+08   -6.15538160307308212e+07   -2.68335489993801489e+07    1.32412662780427279e+01   -2.45812687688911993e+01   -1.03873923322161534e+01    5.29783439715964503e-06    2.43882959113766713e-06    1.06317844261327280e-06
